{
  "type": "FeatureCollection",
  "name": "sample_parcel_changes_2000_2021",
  "features": [
    {
      "type": "Feature",
      "properties": {
        "change_type": "unchanged",
        "old_pin": "09251010010000",
        "new_pin": "09251010010000",
        "old_year": 2000,
        "new_year": 2021,
        "confidence": "high",
        "synthetic_sample": true,
        "notes": "Same PIN and sample geometry."
      },
      "geometry": {
        "type": "Polygon",
        "coordinates": [[[-87.84675, 42.0139], [-87.84595, 42.0139], [-87.84595, 42.0132], [-87.84675, 42.0132], [-87.84675, 42.0139]]]
      }
    },
    {
      "type": "Feature",
      "properties": {
        "change_type": "likely_split",
        "old_pin": "09251010020000",
        "new_pin": "09251012010000;09251012020000",
        "old_year": 2000,
        "new_year": 2021,
        "confidence": "medium",
        "synthetic_sample": true,
        "notes": "One old parcel overlaps two later parcels."
      },
      "geometry": {
        "type": "Polygon",
        "coordinates": [[[-87.84585, 42.0139], [-87.84415, 42.0139], [-87.84415, 42.0132], [-87.84585, 42.0132], [-87.84585, 42.0139]]]
      }
    },
    {
      "type": "Feature",
      "properties": {
        "change_type": "likely_merge",
        "old_pin": "09251010030000;09251010040000",
        "new_pin": "09251013000000",
        "old_year": 2000,
        "new_year": 2021,
        "confidence": "medium",
        "synthetic_sample": true,
        "notes": "Two old parcels overlap one later parcel."
      },
      "geometry": {
        "type": "Polygon",
        "coordinates": [[[-87.84675, 42.01305], [-87.84505, 42.01305], [-87.84505, 42.01235], [-87.84675, 42.01235], [-87.84675, 42.01305]]]
      }
    },
    {
      "type": "Feature",
      "properties": {
        "change_type": "geometry_or_area_changed",
        "old_pin": "09251010050000",
        "new_pin": "09251010050000",
        "old_year": 2000,
        "new_year": 2021,
        "confidence": "medium",
        "synthetic_sample": true,
        "notes": "Same PIN has a larger sample geometry."
      },
      "geometry": {
        "type": "Polygon",
        "coordinates": [[[-87.84495, 42.01305], [-87.84405, 42.01305], [-87.84405, 42.01225], [-87.84495, 42.01225], [-87.84495, 42.01305]]]
      }
    },
    {
      "type": "Feature",
      "properties": {
        "change_type": "retired_pin",
        "old_pin": "09251010060000",
        "new_pin": null,
        "old_year": 2000,
        "new_year": 2021,
        "confidence": "low",
        "synthetic_sample": true,
        "notes": "Old sample PIN has no later match."
      },
      "geometry": {
        "type": "Polygon",
        "coordinates": [[[-87.84675, 42.0122], [-87.84595, 42.0122], [-87.84595, 42.0115], [-87.84675, 42.0115], [-87.84675, 42.0122]]]
      }
    },
    {
      "type": "Feature",
      "properties": {
        "change_type": "new_pin",
        "old_pin": null,
        "new_pin": "09251014000000",
        "old_year": 2000,
        "new_year": 2021,
        "confidence": "low",
        "synthetic_sample": true,
        "notes": "Later sample PIN has no old match."
      },
      "geometry": {
        "type": "Polygon",
        "coordinates": [[[-87.84585, 42.0122], [-87.84505, 42.0122], [-87.84505, 42.0115], [-87.84585, 42.0115], [-87.84585, 42.0122]]]
      }
    }
  ]
}
